{
  "type": "FeatureCollection",
  "features": [
    {
      "type": "Feature",
      "properties": {
        "norad_id": 35594,
        "name": "COSMOS 2251 DEB",
        "group": "cosmos-2251-debris",
        "lat": -50.068833153924665,
        "lon": 91.27966346649578,
        "alt_km": 609.1807688493054,
        "timestamp": "2025-12-10T05:46:14.222995+00:00",
        "meta_object_name": "COSMOS 2251 DEB",
        "meta_object_id": "1993-036AMM",
        "meta_epoch": "2025-12-09T02:34:25.968000",
        "meta_mean_motion": 14.87749225,
        "meta_eccentricity": 0.00305448,
        "meta_inclination": 73.8074,
        "meta_ra_of_asc_node": 113.8828,
        "meta_arg_of_pericenter": 225.3103,
        "meta_mean_anomaly": 134.5588,
        "meta_ephemeris_type": 0,
        "meta_classification_type": "U",
        "meta_norad_cat_id": 35594,
        "meta_element_set_no": 999,
        "meta_rev_at_epoch": 88131,
        "meta_bstar": 0.0022507147,
        "meta_mean_motion_dot": 0.00020735,
        "meta_mean_motion_ddot": 0,
        "tle_line1": "1 35594U 93036AMM 25343.10724500  .00020735  00000+0  22507-2 0  9997",
        "tle_line2": "2 35594  73.8074 113.8828 0030544 225.3103 134.5588 14.87749225881314"
      },
      "geometry": {
        "type": "Point",
        "coordinates": [
          91.27966346649578,
          -50.068833153924665
        ]
      }
    },
    {
      "type": "Feature",
      "properties": {
        "norad_id": 35602,
        "name": "COSMOS 2251 DEB",
        "group": "cosmos-2251-debris",
        "lat": -5.344753148441635,
        "lon": -173.9511513366163,
        "alt_km": 475.39531047884793,
        "timestamp": "2025-12-10T05:46:14.223005+00:00",
        "meta_object_name": "COSMOS 2251 DEB",
        "meta_object_id": "1993-036AMV",
        "meta_epoch": "2025-12-09T06:52:58.268064",
        "meta_mean_motion": 15.34893397,
        "meta_eccentricity": 0.0090202,
        "meta_inclination": 73.9935,
        "meta_ra_of_asc_node": 189.6375,
        "meta_arg_of_pericenter": 256.1847,
        "meta_mean_anomaly": 230.0511,
        "meta_ephemeris_type": 0,
        "meta_classification_type": "U",
        "meta_norad_cat_id": 35602,
        "meta_element_set_no": 999,
        "meta_rev_at_epoch": 90038,
        "meta_bstar": 0.00059,
        "meta_mean_motion_dot": 0.00022844,
        "meta_mean_motion_ddot": 0,
        "tle_line1": "1 35602U 93036AMV 25343.28678551  .00022844  00000+0  59000-3 0  9992",
        "tle_line2": "2 35602  73.9935 189.6375 0090202 256.1847 230.0511 15.34893397900383"
      },
      "geometry": {
        "type": "Point",
        "coordinates": [
          -173.9511513366163,
          -5.344753148441635
        ]
      }
    },
    {
      "type": "Feature",
      "properties": {
        "norad_id": 35605,
        "name": "COSMOS 2251 DEB",
        "group": "cosmos-2251-debris",
        "lat": 52.453870382960396,
        "lon": 4.1386083851484425,
        "alt_km": 477.4545781626821,
        "timestamp": "2025-12-10T05:46:14.223014+00:00",
        "meta_object_name": "COSMOS 2251 DEB",
        "meta_object_id": "1993-036AMY",
        "meta_epoch": "2025-12-08T17:29:07.135584",
        "meta_mean_motion": 15.31836492,
        "meta_eccentricity": 0.00282066,
        "meta_inclination": 73.8723,
        "meta_ra_of_asc_node": 345.2823,
        "meta_arg_of_pericenter": 280.9051,
        "meta_mean_anomaly": 78.8978,
        "meta_ephemeris_type": 0,
        "meta_classification_type": "U",
        "meta_norad_cat_id": 35605,
        "meta_element_set_no": 999,
        "meta_rev_at_epoch": 65910,
        "meta_bstar": 0.0070125726,
        "meta_mean_motion_dot": 0.002247,
        "meta_mean_motion_ddot": 0,
        "tle_line1": "1 35605U 93036AMY 25342.72855481  .00224700  00000+0  70126-2 0  9998",
        "tle_line2": "2 35605  73.8723 345.2823 0028206 280.9051  78.8978 15.31836492659101"
      },
      "geometry": {
        "type": "Point",
        "coordinates": [
          4.1386083851484425,
          52.453870382960396
        ]
      }
    },
    {
      "type": "Feature",
      "properties": {
        "norad_id": 35606,
        "name": "COSMOS 2251 DEB",
        "group": "cosmos-2251-debris",
        "lat": 20.561722777267306,
        "lon": 21.037226805135457,
        "alt_km": 1425.7657316882396,
        "timestamp": "2025-12-10T05:46:14.223024+00:00",
        "meta_object_name": "COSMOS 2251 DEB",
        "meta_object_id": "1993-036AMZ",
        "meta_epoch": "2025-12-09T08:10:26.094720",
        "meta_mean_motion": 13.41205491,
        "meta_eccentricity": 0.04577322,
        "meta_inclination": 73.8107,
        "meta_ra_of_asc_node": 16.2149,
        "meta_arg_of_pericenter": 222.4362,
        "meta_mean_anomaly": 134.0496,
        "meta_ephemeris_type": 0,
        "meta_classification_type": "U",
        "meta_norad_cat_id": 35606,
        "meta_element_set_no": 999,
        "meta_rev_at_epoch": 60994,
        "meta_bstar": 0.0014727579,
        "meta_mean_motion_dot": 1.492e-05,
        "meta_mean_motion_ddot": 0,
        "tle_line1": "1 35606U 93036AMZ 25343.34057980  .00001492  00000+0  14728-2 0  9993",
        "tle_line2": "2 35606  73.8107  16.2149 0457732 222.4362 134.0496 13.41205491609945"
      },
      "geometry": {
        "type": "Point",
        "coordinates": [
          21.037226805135457,
          20.561722777267306
        ]
      }
    },
    {
      "type": "Feature",
      "properties": {
        "norad_id": 35611,
        "name": "COSMOS 2251 DEB",
        "group": "cosmos-2251-debris",
        "lat": 39.52464777632284,
        "lon": -162.1484987630068,
        "alt_km": 661.5548092616791,
        "timestamp": "2025-12-10T05:46:14.223034+00:00",
        "meta_object_name": "COSMOS 2251 DEB",
        "meta_object_id": "1993-036ANE",
        "meta_epoch": "2025-12-07T23:46:52.346496",
        "meta_mean_motion": 14.72654945,
        "meta_eccentricity": 0.0021935,
        "meta_inclination": 74.0173,
        "meta_ra_of_asc_node": 188.5564,
        "meta_arg_of_pericenter": 261.817,
        "meta_mean_anomaly": 98.0514,
        "meta_ephemeris_type": 0,
        "meta_classification_type": "U",
        "meta_norad_cat_id": 35611,
        "meta_element_set_no": 999,
        "meta_rev_at_epoch": 87220,
        "meta_bstar": 0.0026626176,
        "meta_mean_motion_dot": 0.00017044,
        "meta_mean_motion_ddot": 0,
        "tle_line1": "1 35611U 93036ANE 25341.99088364  .00017044  00000+0  26626-2 0  9998",
        "tle_line2": "2 35611  74.0173 188.5564 0021935 261.8170  98.0514 14.72654945872205"
      },
      "geometry": {
        "type": "Point",
        "coordinates": [
          -162.1484987630068,
          39.52464777632284
        ]
      }
    },
    {
      "type": "Feature",
      "properties": {
        "norad_id": 35614,
        "name": "COSMOS 2251 DEB",
        "group": "cosmos-2251-debris",
        "lat": -32.22812202315982,
        "lon": 162.75999198275403,
        "alt_km": 628.3013731467463,
        "timestamp": "2025-12-10T05:46:14.223044+00:00",
        "meta_object_name": "COSMOS 2251 DEB",
        "meta_object_id": "1993-036ANH",
        "meta_epoch": "2025-12-08T16:47:37.057344",
        "meta_mean_motion": 14.66956711,
        "meta_eccentricity": 0.00760294,
        "meta_inclination": 73.959,
        "meta_ra_of_asc_node": 335.2957,
        "meta_arg_of_pericenter": 190.7656,
        "meta_mean_anomaly": 169.189,
        "meta_ephemeris_type": 0,
        "meta_classification_type": "U",
        "meta_norad_cat_id": 35614,
        "meta_element_set_no": 999,
        "meta_rev_at_epoch": 87670,
        "meta_bstar": 0.0013359828,
        "meta_mean_motion_dot": 7.786e-05,
        "meta_mean_motion_ddot": 0,
        "tle_line1": "1 35614U 93036ANH 25342.69973446  .00007786  00000+0  13360-2 0  9996",
        "tle_line2": "2 35614  73.9590 335.2957 0076029 190.7656 169.1890 14.66956711876704"
      },
      "geometry": {
        "type": "Point",
        "coordinates": [
          162.75999198275403,
          -32.22812202315982
        ]
      }
    },
    {
      "type": "Feature",
      "properties": {
        "norad_id": 35645,
        "name": "COSMOS 2251 DEB",
        "group": "cosmos-2251-debris",
        "lat": 51.91513554162171,
        "lon": -109.11707316720717,
        "alt_km": 763.61366533417,
        "timestamp": "2025-12-10T05:46:14.223053+00:00",
        "meta_object_name": "COSMOS 2251 DEB",
        "meta_object_id": "1993-036ANL",
        "meta_epoch": "2025-12-09T14:14:21.450048",
        "meta_mean_motion": 14.45503043,
        "meta_eccentricity": 0.0069509,
        "meta_inclination": 73.9645,
        "meta_ra_of_asc_node": 93.6246,
        "meta_arg_of_pericenter": 251.7687,
        "meta_mean_anomaly": 107.5897,
        "meta_ephemeris_type": 0,
        "meta_classification_type": "U",
        "meta_norad_cat_id": 35645,
        "meta_element_set_no": 999,
        "meta_rev_at_epoch": 86726,
        "meta_bstar": 0.0033945,
        "meta_mean_motion_dot": 0.00012324,
        "meta_mean_motion_ddot": 0,
        "tle_line1": "1 35645U 93036ANL 25343.59330382  .00012324  00000+0  33945-2 0  9991",
        "tle_line2": "2 35645  73.9645  93.6246 0069509 251.7687 107.5897 14.45503043867269"
      },
      "geometry": {
        "type": "Point",
        "coordinates": [
          -109.11707316720717,
          51.91513554162171
        ]
      }
    }
  ]
}